{"type": "FeatureCollection", "features": [ {"type": "Feature", "properties": {"norad_id": 40664, "name": "SKY MEXICO-1", "group": "intelsat", "lat": 0.0293826775810035, "lon": 130.5913179314289, "alt_km": 35796.14196163184, "timestamp": "2025-12-24T07:45:05.866629+00:00", "meta": {"OBJECT_NAME": "SKY MEXICO-1", "OBJECT_ID": "2015-026B", "EPOCH": "2025-12-23T21:19:04.901088", "MEAN_MOTION": 1.0027056, "ECCENTRICITY": 0.00024588, "INCLINATION": 0.009, "RA_OF_ASC_NODE": 28.3066, "ARG_OF_PERICENTER": 260.8975, "MEAN_ANOMALY": 44.4735, "EPHEMERIS_TYPE": 0, "CLASSIFICATION_TYPE": "U", "NORAD_CAT_ID": 40664, "ELEMENT_SET_NO": 999, "REV_AT_EPOCH": 3869, "BSTAR": 0, "MEAN_MOTION_DOT": -2.13e-06, "MEAN_MOTION_DDOT": 0}, "tle": {"line1": "1 40664U 15026B   25357.88825117 -.00000213  00000+0  00000+0 0  9991", "line2": "2 40664   0.0090  28.3066 0002458 260.8975  44.4735  1.00270560 38696"}}, "geometry": {"type": "Point", "coordinates": [130.5913179314289, 0.0293826775810035]}}, {"type": "Feature", "properties": {"norad_id": 40874, "name": "INTELSAT 34 (IS-34)", "group": "intelsat", "lat": 0.003003052257593137, "lon": 153.8726812485413, "alt_km": 35783.53214697826, "timestamp": "2025-12-24T07:45:05.866641+00:00", "meta": {"OBJECT_NAME": "INTELSAT 34 (IS-34)", "OBJECT_ID": "2015-039A", "EPOCH": "2025-12-23T19:42:59.103360", "MEAN_MOTION": 1.00270476, "ECCENTRICITY": 7.121e-05, "INCLINATION": 0.0141, "RA_OF_ASC_NODE": 314.1249, "ARG_OF_PERICENTER": 206.2601, "MEAN_ANOMALY": 172.4751, "EPHEMERIS_TYPE": 0, "CLASSIFICATION_TYPE": "U", "NORAD_CAT_ID": 40874, "ELEMENT_SET_NO": 999, "REV_AT_EPOCH": 3786, "BSTAR": 0, "MEAN_MOTION_DOT": -2.64e-06, "MEAN_MOTION_DDOT": 0}, "tle": {"line1": "1 40874U 15039A   25357.82151740 -.00000264  00000+0  00000+0 0  9992", "line2": "2 40874   0.0141 314.1249 0000712 206.2601 172.4751  1.00270476 37860"}}, "geometry": {"type": "Point", "coordinates": [153.8726812485413, 0.003003052257593137]}}, {"type": "Feature", "properties": {"norad_id": 41581, "name": "INTELSAT 31 (IS-31)", "group": "intelsat", "lat": 0.009177468659795341, "lon": 114.28119368816083, "alt_km": 35786.883679122075, "timestamp": "2025-12-24T07:45:05.866652+00:00", "meta": {"OBJECT_NAME": "INTELSAT 31 (IS-31)", "OBJECT_ID": "2016-035A", "EPOCH": "2025-12-23T19:31:44.704704", "MEAN_MOTION": 1.00269658, "ECCENTRICITY": 0.00019255, "INCLINATION": 0.0283, "RA_OF_ASC_NODE": 262.055, "ARG_OF_PERICENTER": 303.365, "MEAN_ANOMALY": 85.0534, "EPHEMERIS_TYPE": 0, "CLASSIFICATION_TYPE": "U", "NORAD_CAT_ID": 41581, "ELEMENT_SET_NO": 999, "REV_AT_EPOCH": 3492, "BSTAR": 0, "MEAN_MOTION_DOT": -1.29e-06, "MEAN_MOTION_DDOT": 0}, "tle": {"line1": "1 41581U 16035A   25357.81371186 -.00000129  00000+0  00000+0 0  9992", "line2": "2 41581   0.0283 262.0550 0001925 303.3650  85.0534  1.00269658 34921"}}, "geometry": {"type": "Point", "coordinates": [114.28119368816083, 0.009177468659795341]}}, {"type": "Feature", "properties": {"norad_id": 41747, "name": "INTELSAT 36 (IS-36)", "group": "intelsat", "lat": -0.0331031573927321, "lon": -82.14906460109044, "alt_km": 35783.06579635178, "timestamp": "2025-12-24T07:45:05.866664+00:00", "meta": {"OBJECT_NAME": "INTELSAT 36 (IS-36)", "OBJECT_ID": "2016-053A", "EPOCH": "2025-12-23T22:01:00.883776", "MEAN_MOTION": 1.00271056, "ECCENTRICITY": 0.00011315, "INCLINATION": 0.0103, "RA_OF_ASC_NODE": 8.014, "ARG_OF_PERICENTER": 317.6781, "MEAN_ANOMALY": 165.7553, "EPHEMERIS_TYPE": 0, "CLASSIFICATION_TYPE": "U", "NORAD_CAT_ID": 41747, "ELEMENT_SET_NO": 999, "REV_AT_EPOCH": 3419, "BSTAR": 0, "MEAN_MOTION_DOT": -3e-08, "MEAN_MOTION_DDOT": 0}, "tle": {"line1": "1 41747U 16053A   25357.91737134 -.00000003  00000+0  00000+0 0  9997", "line2": "2 41747   0.0103   8.0140 0001131 317.6781 165.7553  1.00271056 34192"}}, "geometry": {"type": "Point", "coordinates": [-82.14906460109044, -0.0331031573927321]}}, {"type": "Feature", "properties": {"norad_id": 41945, "name": "INTELSAT 32E (IS-32E)", "group": "intelsat", "lat": 0.03166407440676179, "lon": 166.19392207662042, "alt_km": 35787.00314449162, "timestamp": "2025-12-24T07:45:05.866689+00:00", "meta": {"OBJECT_NAME": "INTELSAT 32E (IS-32E)", "OBJECT_ID": "2017-007B", "EPOCH": "2025-12-23T16:21:03.290976", "MEAN_MOTION": 1.0026875, "ECCENTRICITY": 2.529e-05, "INCLINATION": 0.0225, "RA_OF_ASC_NODE": 67.8207, "ARG_OF_PERICENTER": 7.8321, "MEAN_ANOMALY": 218.9086, "EPHEMERIS_TYPE": 0, "CLASSIFICATION_TYPE": "U", "NORAD_CAT_ID": 41945, "ELEMENT_SET_NO": 999, "REV_AT_EPOCH": 3246, "BSTAR": 0, "MEAN_MOTION_DOT": -2.48e-06, "MEAN_MOTION_DDOT": 0}, "tle": {"line1": "1 41945U 17007B   25357.68128809 -.00000248  00000+0  00000+0 0  9995", "line2": "2 41945   0.0225  67.8207 0000252   7.8321 218.9086  1.00268750 32462"}}, "geometry": {"type": "Point", "coordinates": [166.19392207662042, 0.03166407440676179]}}, {"type": "Feature", "properties": {"norad_id": 42818, "name": "INTELSAT 35E (IS-35E)", "group": "intelsat", "lat": 0.019402097622717652, "lon": 174.82887222539105, "alt_km": 35789.65682727338, "timestamp": "2025-12-24T07:45:05.866703+00:00", "meta": {"OBJECT_NAME": "INTELSAT 35E (IS-35E)", "OBJECT_ID": "2017-041A", "EPOCH": "2025-12-23T19:48:58.529088", "MEAN_MOTION": 1.00267018, "ECCENTRICITY": 0.00020166, "INCLINATION": 0.0218, "RA_OF_ASC_NODE": 25.8487, "ARG_OF_PERICENTER": 253.9261, "MEAN_ANOMALY": 75.5708, "EPHEMERIS_TYPE": 0, "CLASSIFICATION_TYPE": "U", "NORAD_CAT_ID": 42818, "ELEMENT_SET_NO": 999, "REV_AT_EPOCH": 3105, "BSTAR": 0, "MEAN_MOTION_DOT": 0, "MEAN_MOTION_DDOT": 0}, "tle": {"line1": "1 42818U 17041A   25357.82567742  .00000000  00000+0  00000+0 0  9997", "line2": "2 42818   0.0218  25.8487 0002016 253.9261  75.5708  1.00267018 31053"}}, "geometry": {"type": "Point", "coordinates": [174.82887222539105, 0.019402097622717652]}}, {"type": "Feature", "properties": {"norad_id": 42950, "name": "INTELSAT 37E (IS-37E)", "group": "intelsat", "lat": 0.002795128314912869, "lon": -168.66500171371004, "alt_km": 35782.47581128394, "timestamp": "2025-12-24T07:45:05.866715+00:00", "meta": {"OBJECT_NAME": "INTELSAT 37E (IS-37E)", "OBJECT_ID": "2017-059A", "EPOCH": "2025-12-23T21:36:25.739424", "MEAN_MOTION": 1.00270019, "ECCENTRICITY": 0.00030276, "INCLINATION": 0.0203, "RA_OF_ASC_NODE": 17.2071, "ARG_OF_PERICENTER": 245.2871, "MEAN_ANOMALY": 136.2991, "EPHEMERIS_TYPE": 0, "CLASSIFICATION_TYPE": "U", "NORAD_CAT_ID": 42950, "ELEMENT_SET_NO": 999, "REV_AT_EPOCH": 3030, "BSTAR": 0, "MEAN_MOTION_DOT": 0, "MEAN_MOTION_DDOT": 0}, "tle": {"line1": "1 42950U 17059A   25357.90029791  .00000000  00000+0  00000+0 0  9999", "line2": "2 42950   0.0203  17.2071 0003027 245.2871 136.2991  1.00270019 30303"}}, "geometry": {"type": "Point", "coordinates": [-168.66500171371004, 0.002795128314912869]}}, {"type": "Feature", "properties": {"norad_id": 43632, "name": "AZERSPACE 2 (IS-38)", "group": "intelsat", "lat": -0.021199880767695106, "lon": -105.5321629766435, "alt_km": 35781.30951669335, "timestamp": "2025-12-24T07:45:05.866726+00:00", "meta": {"OBJECT_NAME": "AZERSPACE 2 (IS-38)", "OBJECT_ID": "2018-074A", "EPOCH": "2025-12-23T21:54:24.016608", "MEAN_MOTION": 1.00270604, "ECCENTRICITY": 0.00012578, "INCLINATION": 0.0004, "RA_OF_ASC_NODE": 0.5024, "ARG_OF_PERICENTER": 272.1539, "MEAN_ANOMALY": 193.7454, "EPHEMERIS_TYPE": 0, "CLASSIFICATION_TYPE": "U", "NORAD_CAT_ID": 43632, "ELEMENT_SET_NO": 999, "REV_AT_EPOCH": 2669, "BSTAR": 0, "MEAN_MOTION_DOT": 1.58e-06, "MEAN_MOTION_DDOT": 0}, "tle": {"line1": "1 43632U 18074A   25357.91277797  .00000158  00000+0  00000+0 0  9991", "line2": "2 43632   0.0004   0.5024 0001257 272.1539 193.7454  1.00270604 26695"}}, "geometry": {"type": "Point", "coordinates": [-105.5321629766435, -0.021199880767695106]}}, {"type": "Feature", "properties": {"norad_id": 43633, "name": "HORIZONS-3E", "group": "intelsat", "lat": -0.010333082072474346, "lon": 18.369500457357123, "alt_km": 35785.22855675827, "timestamp": "2025-12-24T07:45:05.866738+00:00", "meta": {"OBJECT_NAME": "HORIZONS-3E", "OBJECT_ID": "2018-074B", "EPOCH": "2025-12-23T07:05:21.073920", "MEAN_MOTION": 1.00271636, "ECCENTRICITY": 5.694e-05, "INCLINATION": 0.0488, "RA_OF_ASC_NODE": 189.0335, "ARG_OF_PERICENTER": 120.6769, "MEAN_ANOMALY": 57.71, "EPHEMERIS_TYPE": 0, "CLASSIFICATION_TYPE": "U", "NORAD_CAT_ID": 43633, "ELEMENT_SET_NO": 999, "REV_AT_EPOCH": 2657, "BSTAR": 0, "MEAN_MOTION_DOT": -9e-08, "MEAN_MOTION_DDOT": 0}, "tle": {"line1": "1 43633U 18074B   25357.29538280 -.00000009  00000+0  00000+0 0  9996", "line2": "2 43633   0.0488 189.0335 0000569 120.6769  57.7100  1.00271636 26577"}}, "geometry": {"type": "Point", "coordinates": [18.369500457357123, -0.010333082072474346]}}, {"type": "Feature", "properties": {"norad_id": 44333, "name": "AT&T T-16", "group": "intelsat", "lat": 0.03348324154006169, "lon": 108.49279033162779, "alt_km": 35783.64769458082, "timestamp": "2025-12-24T07:45:05.866750+00:00", "meta": {"OBJECT_NAME": "AT&T T-16", "OBJECT_ID": "2019-034A", "EPOCH": "2025-12-23T03:21:38.542752", "MEAN_MOTION": 1.00269221, "ECCENTRICITY": 8.459e-05, "INCLINATION": 0.0204, "RA_OF_ASC_NODE": 63.1564, "ARG_OF_PERICENTER": 72.8406, "MEAN_ANOMALY": 265.4876, "EPHEMERIS_TYPE": 0, "CLASSIFICATION_TYPE": "U", "NORAD_CAT_ID": 44333, "ELEMENT_SET_NO": 999, "REV_AT_EPOCH": 2386, "BSTAR": 0, "MEAN_MOTION_DOT": -9.4e-07, "MEAN_MOTION_DDOT": 0}, "tle": {"line1": "1 44333U 19034A   25357.14002943 -.00000094  00000+0  00000+0 0  9991", "line2": "2 44333   0.0204  63.1564 0000845  72.8406 265.4876  1.00269221 23864"}}, "geometry": {"type": "Point", "coordinates": [108.49279033162779, 0.03348324154006169]}}]}